TRANSPORTER-12 OBJECT AZ
1 62656U 25009AZ  26068.71026235  .00016057  00000+0  54903-3 0  9991
2 62656  97.3981 151.9913 0000987  45.3581 314.7740 15.30349724 63792
STARLINK-32897          
1 62967U 25029V   26068.71808384  .00016355  00000+0  56298-3 0  9991
2 62967  53.1597 232.2028 0001685  20.4546 339.6522 15.30207132 61328
