[{"OBJECT_NAME":"TRANSPORTER-12 OBJECT AZ","OBJECT_ID":"2025-009AZ","EPOCH":"2026-03-09T17:02:46.667040","MEAN_MOTION":15.30349724,"ECCENTRICITY":9.87e-5,"INCLINATION":97.3981,"RA_OF_ASC_NODE":151.9913,"ARG_OF_PERICENTER":45.3581,"MEAN_ANOMALY":314.774,"EPHEMERIS_TYPE":0,"CLASSIFICATION_TYPE":"U","NORAD_CAT_ID":62656,"ELEMENT_SET_NO":999,"REV_AT_EPOCH":6379,"BSTAR":0.00054902545,"MEAN_MOTION_DOT":0.00016057,"MEAN_MOTION_DDOT":0},{"OBJECT_NAME":"STARLINK-32897","OBJECT_ID":"2025-029V","EPOCH":"2026-03-09T17:14:02.444640","MEAN_MOTION":15.30207132,"ECCENTRICITY":0.00016846,"INCLINATION":53.1597,"RA_OF_ASC_NODE":232.2028,"ARG_OF_PERICENTER":20.4546,"MEAN_ANOMALY":339.6522,"EPHEMERIS_TYPE":0,"CLASSIFICATION_TYPE":"U","NORAD_CAT_ID":62967,"ELEMENT_SET_NO":999,"REV_AT_EPOCH":6132,"BSTAR":0.00056297726,"MEAN_MOTION_DOT":0.00016355,"MEAN_MOTION_DDOT":0}]
